[{"OBJECT_NAME":"STARLINK-6336","OBJECT_ID":"2023-078X","EPOCH":"2026-03-09T21:29:58.591392","MEAN_MOTION":14.98326686,"ECCENTRICITY":0.00027955,"INCLINATION":70,"RA_OF_ASC_NODE":323.9674,"ARG_OF_PERICENTER":270.6387,"MEAN_ANOMALY":89.4452,"EPHEMERIS_TYPE":0,"CLASSIFICATION_TYPE":"U","NORAD_CAT_ID":56788,"ELEMENT_SET_NO":999,"REV_AT_EPOCH":15320,"BSTAR":-6.2157875e-5,"MEAN_MOTION_DOT":-8.34e-6,"MEAN_MOTION_DDOT":0},{"OBJECT_NAME":"PSLV DEB","OBJECT_ID":"2001-049ND","EPOCH":"2026-03-09T00:18:30.786048","MEAN_MOTION":14.86467643,"ECCENTRICITY":0.00493832,"INCLINATION":98.2994,"RA_OF_ASC_NODE":96.4725,"ARG_OF_PERICENTER":253.7762,"MEAN_ANOMALY":105.8016,"EPHEMERIS_TYPE":0,"CLASSIFICATION_TYPE":"U","NORAD_CAT_ID":27585,"ELEMENT_SET_NO":999,"REV_AT_EPOCH":28713,"BSTAR":0.00037332786,"MEAN_MOTION_DOT":3.311e-5,"MEAN_MOTION_DDOT":0}]
